STARLINK-1434           
1 45712U 20035BH  26068.24137979  .00054112  00000+0  20295-2 0  9995
2 45712  53.0547  22.1128 0005343  88.0400 272.1210 15.26724568319325
STARLINK-31940          
1 59873U 24098R   26068.55527965  .00000218  00000+0  17422-4 0  9991
2 59873  43.0013 271.1418 0000520 241.0178 119.0622 15.27575351101913
